DUPLEX                  
1 66906U 98067XS  26084.44229608  .00025000  00000+0  34288-3 0  9996
2 66906  51.6301 350.6000 0003161 180.1942 179.9049 15.57191186 17589
ISS OBJECT XT           
1 66907U 98067XT  26084.09513735  .00186952  00000+0  12194-2 0  9990
2 66907  51.6251 346.7505 0005433 178.6760 181.4255 15.74759549 17606
ISS OBJECT XU           
1 66908U 98067XU  26084.09189041  .00194341  00000+0  12552-2 0  9999
2 66908  51.6242 346.7246 0005663 178.7576 181.3439 15.74960927 17607
SILVERSAT               
1 66909U 98067XV  26084.12061534  .00276073  00000+0  14348-2 0  9998
2 66909  51.6219 345.4067 0006327 184.9546 175.1393 15.79611244 17625
ISS OBJECT XW           
1 66910U 98067XW  26084.09907322  .00165061  00000+0  11390-2 0  9998
2 66910  51.6237 346.7691 0005900 178.0265 182.0758 15.73519886 17605
ISS OBJECT XX           
1 66911U 98067XX  26084.01343127  .00375397  00000+0  14891-2 0  9992
2 66911  51.6196 344.6599 0007914 187.2410 172.8480 15.85123698 17610
ISS OBJECT XY           
1 66912U 98067XY  26084.03256471  .00095055  00000+0  87845-3 0  9990
2 66912  51.6274 349.3528 0004061 177.5778 182.5238 15.66770073 17557
KNACKSAT-2              
1 67683U 98067XZ  26084.04792512  .00037183  00000+0  58694-3 0  9996
2 67683  51.6320 355.4664 0009805 241.4019 118.5985 15.53091160  7178
CORAL                   
1 67684U 98067YA  26084.43904476  .00077612  00000+0  10495-2 0  9991
2 67684  51.6303 352.8286 0012344 231.8907 128.0972 15.56955892  7246
GXIBA-1                 
1 67685U 98067YB  26084.03920519  .00041647  00000+0  64371-3 0  9996
2 67685  51.6316 355.4081 0011821 238.1042 121.8798 15.53594921  7170
UITMSAT-2               
1 67686U 98067YC  26084.02680130  .00049767  00000+0  74425-3 0  9990
2 67686  51.6330 355.3278 0008862 209.1546 150.8951 15.54457501  7178
HMU-SAT2                
1 67687U 98067YD  26084.04351999  .00042841  00000+0  66878-3 0  9990
2 67687  51.6326 355.4392 0008398 211.7886 148.2598 15.53346708  7096
LEOPARD                 
1 67688U 98067YE  26084.03246038  .00050475  00000+0  76558-3 0  9995
2 67688  51.6326 355.3651 0008644 209.2587 150.7920 15.54065939  7090
CREW DRAGON 12          
1 67796U 26031A   26084.45430866  .00012951  00000+0  24673-3 0  9995
2 67796  51.6344 354.4276 0006214 231.1671 128.8763 15.48531543558704
PROGRESS-MS 33          
1 68319U 26058A   26084.45430866  .00012951  00000+0  24673-3 0  9996
2 68319  51.6344 354.4276 0006214 231.1671 128.8763 15.48531543   214
