[{"OBJECT_NAME":"DUPLEX","OBJECT_ID":"1998-067XS","EPOCH":"2026-03-25T10:36:54.381312","MEAN_MOTION":15.57191186,"ECCENTRICITY":0.00031613,"INCLINATION":51.6301,"RA_OF_ASC_NODE":350.6,"ARG_OF_PERICENTER":180.1942,"MEAN_ANOMALY":179.9049,"EPHEMERIS_TYPE":0,"CLASSIFICATION_TYPE":"U","NORAD_CAT_ID":66906,"ELEMENT_SET_NO":999,"REV_AT_EPOCH":1758,"BSTAR":0.00034288141,"MEAN_MOTION_DOT":0.00025,"MEAN_MOTION_DDOT":0},{"OBJECT_NAME":"ISS OBJECT XT","OBJECT_ID":"1998-067XT","EPOCH":"2026-03-25T02:16:59.867040","MEAN_MOTION":15.74759549,"ECCENTRICITY":0.00054335,"INCLINATION":51.6251,"RA_OF_ASC_NODE":346.7505,"ARG_OF_PERICENTER":178.676,"MEAN_ANOMALY":181.4255,"EPHEMERIS_TYPE":0,"CLASSIFICATION_TYPE":"U","NORAD_CAT_ID":66907,"ELEMENT_SET_NO":999,"REV_AT_EPOCH":1760,"BSTAR":0.001219355,"MEAN_MOTION_DOT":0.00186952,"MEAN_MOTION_DDOT":0},{"OBJECT_NAME":"ISS OBJECT XU","OBJECT_ID":"1998-067XU","EPOCH":"2026-03-25T02:12:19.331424","MEAN_MOTION":15.74960927,"ECCENTRICITY":0.00056636,"INCLINATION":51.6242,"RA_OF_ASC_NODE":346.7246,"ARG_OF_PERICENTER":178.7576,"MEAN_ANOMALY":181.3439,"EPHEMERIS_TYPE":0,"CLASSIFICATION_TYPE":"U","NORAD_CAT_ID":66908,"ELEMENT_SET_NO":999,"REV_AT_EPOCH":1760,"BSTAR":0.0012551817,"MEAN_MOTION_DOT":0.00194341,"MEAN_MOTION_DDOT":0},{"OBJECT_NAME":"SILVERSAT","OBJECT_ID":"1998-067XV","EPOCH":"2026-03-25T02:53:41.165376","MEAN_MOTION":15.79611244,"ECCENTRICITY":0.00063275,"INCLINATION":51.6219,"RA_OF_ASC_NODE":345.4067,"ARG_OF_PERICENTER":184.9546,"MEAN_ANOMALY":175.1393,"EPHEMERIS_TYPE":0,"CLASSIFICATION_TYPE":"U","NORAD_CAT_ID":66909,"ELEMENT_SET_NO":999,"REV_AT_EPOCH":1762,"BSTAR":0.0014347631,"MEAN_MOTION_DOT":0.00276073,"MEAN_MOTION_DDOT":0},{"OBJECT_NAME":"ISS OBJECT XW","OBJECT_ID":"1998-067XW","EPOCH":"2026-03-25T02:22:39.926208","MEAN_MOTION":15.73519886,"ECCENTRICITY":0.00059003,"INCLINATION":51.6237,"RA_OF_ASC_NODE":346.7691,"ARG_OF_PERICENTER":178.0265,"MEAN_ANOMALY":182.0758,"EPHEMERIS_TYPE":0,"CLASSIFICATION_TYPE":"U","NORAD_CAT_ID":66910,"ELEMENT_SET_NO":999,"REV_AT_EPOCH":1760,"BSTAR":0.001138978,"MEAN_MOTION_DOT":0.00165061,"MEAN_MOTION_DDOT":0},{"OBJECT_NAME":"ISS OBJECT XX","OBJECT_ID":"1998-067XX","EPOCH":"2026-03-25T00:19:20.461728","MEAN_MOTION":15.85123698,"ECCENTRICITY":0.0007914,"INCLINATION":51.6196,"RA_OF_ASC_NODE":344.6599,"ARG_OF_PERICENTER":187.241,"MEAN_ANOMALY":172.848,"EPHEMERIS_TYPE":0,"CLASSIFICATION_TYPE":"U","NORAD_CAT_ID":66911,"ELEMENT_SET_NO":999,"REV_AT_EPOCH":1761,"BSTAR":0.0014890518,"MEAN_MOTION_DOT":0.00375397,"MEAN_MOTION_DDOT":0},{"OBJECT_NAME":"ISS OBJECT XY","OBJECT_ID":"1998-067XY","EPOCH":"2026-03-25T00:46:53.590944","MEAN_MOTION":15.66770073,"ECCENTRICITY":0.00040616,"INCLINATION":51.6274,"RA_OF_ASC_NODE":349.3528,"ARG_OF_PERICENTER":177.5778,"MEAN_ANOMALY":182.5238,"EPHEMERIS_TYPE":0,"CLASSIFICATION_TYPE":"U","NORAD_CAT_ID":66912,"ELEMENT_SET_NO":999,"REV_AT_EPOCH":1755,"BSTAR":0.00087844807,"MEAN_MOTION_DOT":0.00095055,"MEAN_MOTION_DDOT":0},{"OBJECT_NAME":"KNACKSAT-2","OBJECT_ID":"1998-067XZ","EPOCH":"2026-03-25T01:09:00.730368","MEAN_MOTION":15.5309116,"ECCENTRICITY":0.00098058,"INCLINATION":51.632,"RA_OF_ASC_NODE":355.4664,"ARG_OF_PERICENTER":241.4019,"MEAN_ANOMALY":118.5985,"EPHEMERIS_TYPE":0,"CLASSIFICATION_TYPE":"U","NORAD_CAT_ID":67683,"ELEMENT_SET_NO":999,"REV_AT_EPOCH":717,"BSTAR":0.00058694026,"MEAN_MOTION_DOT":0.00037183,"MEAN_MOTION_DDOT":0},{"OBJECT_NAME":"CORAL","OBJECT_ID":"1998-067YA","EPOCH":"2026-03-25T10:32:13.467264","MEAN_MOTION":15.56955892,"ECCENTRICITY":0.00123446,"INCLINATION":51.6303,"RA_OF_ASC_NODE":352.8286,"ARG_OF_PERICENTER":231.8907,"MEAN_ANOMALY":128.0972,"EPHEMERIS_TYPE":0,"CLASSIFICATION_TYPE":"U","NORAD_CAT_ID":67684,"ELEMENT_SET_NO":999,"REV_AT_EPOCH":724,"BSTAR":0.0010494921,"MEAN_MOTION_DOT":0.00077612,"MEAN_MOTION_DDOT":0},{"OBJECT_NAME":"GXIBA-1","OBJECT_ID":"1998-067YB","EPOCH":"2026-03-25T00:56:27.328416","MEAN_MOTION":15.53594921,"ECCENTRICITY":0.0011821,"INCLINATION":51.6316,"RA_OF_ASC_NODE":355.4081,"ARG_OF_PERICENTER":238.1042,"MEAN_ANOMALY":121.8798,"EPHEMERIS_TYPE":0,"CLASSIFICATION_TYPE":"U","NORAD_CAT_ID":67685,"ELEMENT_SET_NO":999,"REV_AT_EPOCH":717,"BSTAR":0.00064371151,"MEAN_MOTION_DOT":0.00041647,"MEAN_MOTION_DDOT":0},{"OBJECT_NAME":"UITMSAT-2","OBJECT_ID":"1998-067YC","EPOCH":"2026-03-25T00:38:35.632320","MEAN_MOTION":15.54457501,"ECCENTRICITY":0.0008862,"INCLINATION":51.633,"RA_OF_ASC_NODE":355.3278,"ARG_OF_PERICENTER":209.1546,"MEAN_ANOMALY":150.8951,"EPHEMERIS_TYPE":0,"CLASSIFICATION_TYPE":"U","NORAD_CAT_ID":67686,"ELEMENT_SET_NO":999,"REV_AT_EPOCH":717,"BSTAR":0.00074425072,"MEAN_MOTION_DOT":0.00049767,"MEAN_MOTION_DDOT":0},{"OBJECT_NAME":"HMU-SAT2","OBJECT_ID":"1998-067YD","EPOCH":"2026-03-25T01:02:40.127136","MEAN_MOTION":15.53346708,"ECCENTRICITY":0.00083984,"INCLINATION":51.6326,"RA_OF_ASC_NODE":355.4392,"ARG_OF_PERICENTER":211.7886,"MEAN_ANOMALY":148.2598,"EPHEMERIS_TYPE":0,"CLASSIFICATION_TYPE":"U","NORAD_CAT_ID":67687,"ELEMENT_SET_NO":999,"REV_AT_EPOCH":709,"BSTAR":0.00066877644,"MEAN_MOTION_DOT":0.00042841,"MEAN_MOTION_DDOT":0},{"OBJECT_NAME":"LEOPARD","OBJECT_ID":"1998-067YE","EPOCH":"2026-03-25T00:46:44.576832","MEAN_MOTION":15.54065939,"ECCENTRICITY":0.00086449,"INCLINATION":51.6326,"RA_OF_ASC_NODE":355.3651,"ARG_OF_PERICENTER":209.2587,"MEAN_ANOMALY":150.792,"EPHEMERIS_TYPE":0,"CLASSIFICATION_TYPE":"U","NORAD_CAT_ID":67688,"ELEMENT_SET_NO":999,"REV_AT_EPOCH":709,"BSTAR":0.00076557586,"MEAN_MOTION_DOT":0.00050475,"MEAN_MOTION_DDOT":0},{"OBJECT_NAME":"CREW DRAGON 12","OBJECT_ID":"2026-031A","EPOCH":"2026-03-25T10:54:12.268224","MEAN_MOTION":15.48531543,"ECCENTRICITY":0.00062149,"INCLINATION":51.6344,"RA_OF_ASC_NODE":354.4276,"ARG_OF_PERICENTER":231.1671,"MEAN_ANOMALY":128.8763,"EPHEMERIS_TYPE":0,"CLASSIFICATION_TYPE":"U","NORAD_CAT_ID":67796,"ELEMENT_SET_NO":999,"REV_AT_EPOCH":55870,"BSTAR":0.00024672628,"MEAN_MOTION_DOT":0.00012951,"MEAN_MOTION_DDOT":0},{"OBJECT_NAME":"PROGRESS-MS 33","OBJECT_ID":"2026-058A","EPOCH":"2026-03-25T10:54:12.268224","MEAN_MOTION":15.48531543,"ECCENTRICITY":0.00062149,"INCLINATION":51.6344,"RA_OF_ASC_NODE":354.4276,"ARG_OF_PERICENTER":231.1671,"MEAN_ANOMALY":128.8763,"EPHEMERIS_TYPE":0,"CLASSIFICATION_TYPE":"U","NORAD_CAT_ID":68319,"ELEMENT_SET_NO":999,"REV_AT_EPOCH":21,"BSTAR":0.00024672628,"MEAN_MOTION_DOT":0.00012951,"MEAN_MOTION_DDOT":0}]
